     2              NAVIGATION DATA                         RINEX VERSION / TYPE
CCRINEXN V1.6.0 UX  CDDIS               15-FEB-16 15:33     PGM / RUN BY / DATE 
IGS BROADCAST EPHEMERIS FILE                                COMMENT             
    0.1304D-07  0.0000D+00 -0.5960D-07  0.5960D-07          ION ALPHA           
    0.1106D+06 -0.6554D+05 -0.2621D+06  0.3932D+06          ION BETA            
    0.000000000000D+00 0.177635683940D-14   233472     1884 DELTA-UTC: A0,A1,T,W
    17                                                      LEAP SECONDS        
                                                            END OF HEADER       
12 16  2 14 15 59 44.0 0.368037726730D-03 0.261479726760D-11 0.000000000000D+00
    0.900000000000D+01-0.594687500000D+02 0.386837541908D-08-0.688106236238D+00
   -0.310130417347D-05 0.584530946799D-02 0.745430588722D-05 0.515378618622D+04
    0.575840000000D+05 0.124797224999D-06-0.245364610364D+01 0.111758708954D-06
    0.990411968234D+00 0.251093750000D+03 0.667690604405D+00-0.797211778499D-08
   -0.270011247052D-09 0.000000000000D+00 0.188400000000D+04 0.000000000000D+00
    0.200000000000D+01 0.000000000000D+00-0.121071934700D-07 0.900000000000D+01
    0.537000000000D+05 0.400000000000D+01 0.000000000000D+00 0.000000000000D+00
13 16  2 14 15 59 44.0-0.185276381671D-03-0.250111042988D-11 0.000000000000D+00
    0.100000000000D+01 0.869687500000D+02 0.439482591928D-08 0.663850346432D+00
    0.444240868092D-05 0.466843007598D-02 0.986829400063D-05 0.515368501663D+04
    0.575840000000D+05-0.260770320892D-07 0.179743753801D+01-0.540167093277D-07
    0.971780716099D+00 0.194875000000D+03 0.198602741026D+01-0.804426364730D-08
    0.703600736366D-10 0.000000000000D+00 0.188400000000D+04 0.000000000000D+00
    0.200000000000D+01 0.000000000000D+00-0.111758708954D-07 0.100000000000D+01
    0.545400000000D+05 0.400000000000D+01 0.000000000000D+00 0.000000000000D+00
20 16  2 14 15 59 44.0 0.392789021134D-03 0.261479726760D-11 0.000000000000D+00
    0.700000000000D+01-0.378750000000D+02 0.557701801947D-08 0.180260818831D+01
   -0.206567347050D-05 0.488552195020D-02 0.889785587788D-05 0.515369145775D+04
    0.575840000000D+05-0.372529029846D-08 0.556234078274D+00-0.143423676491D-06
    0.926450699922D+00 0.190375000000D+03 0.133425088955D+01-0.847856745208D-08
   -0.269296931584D-09 0.100000000000D+01 0.188400000000D+04 0.000000000000D+00
    0.200000000000D+01 0.000000000000D+00-0.838190317154D-08 0.700000000000D+01
    0.532800000000D+05 0.400000000000D+01 0.000000000000D+00 0.000000000000D+00
23 16  2 14 15 59 44.0-0.160021241754D-03-0.193267624127D-11 0.000000000000D+00
    0.110000000000D+02 0.738437500000D+02 0.499663670140D-08 0.128327640584D+01
    0.408850610256D-05 0.104923075996D-01 0.922940671444D-05 0.515372962952D+04
    0.575840000000D+05-0.651925802231D-07 0.168443391457D+01 0.143423676491D-06
    0.946247717827D+00 0.197406250000D+03-0.261333721859D+01-0.837320592049D-08
   -0.106075847056D-09 0.000000000000D+00 0.188400000000D+04 0.000000000000D+00
    0.200000000000D+01 0.000000000000D+00-0.200234353542D-07 0.110000000000D+02
    0.504000000000D+05 0.400000000000D+01 0.000000000000D+00 0.000000000000D+00
24 16  2 14 15 59 44.0-0.123633071780D-04-0.682121026330D-12 0.000000000000D+00
    0.400000000000D+01 0.491875000000D+02 0.504342436458D-08 0.663634368521D+00
    0.263750553131D-05 0.425109534990D-02 0.417605042458D-05 0.515363424301D+04
    0.575840000000D+05-0.372529029846D-08 0.271072653952D+01 0.372529029846D-07
    0.950711715793D+00 0.289093750000D+03 0.365579894019D+00-0.860857286733D-08
   -0.104647216119D-09 0.100000000000D+01 0.188400000000D+04 0.000000000000D+00
    0.200000000000D+01 0.000000000000D+00 0.232830643654D-08 0.400000000000D+01
    0.505260000000D+05 0.400000000000D+01 0.000000000000D+00 0.000000000000D+00
28 16  2 14 15 59 44.0 0.502399634570D-03 0.261479726760D-11 0.000000000000D+00
    0.500000000000D+01-0.589687500000D+02 0.358979238640D-08-0.297647574225D+01
   -0.302121043205D-05 0.199456631672D-01 0.850111246109D-05 0.515363039017D+04
    0.575840000000D+05 0.264495611191D-06-0.242982749760D+01 0.428408384323D-07
    0.989599571789D+00 0.226187500000D+03-0.162286528681D+01-0.746745390657D-08
   -0.200008331150D-09 0.000000000000D+00 0.188400000000D+04 0.000000000000D+00
    0.200000000000D+01 0.000000000000D+00-0.107102096081D-07 0.500000000000D+01
    0.504000000000D+05 0.400000000000D+01 0.000000000000D+00 0.000000000000D+00
 1 16  2 14 16  0  0.0 0.117374584079D-04 0.102318153950D-11 0.000000000000D+00
    0.450000000000D+02-0.203750000000D+02 0.482412951579D-08 0.421087930128D+00
   -0.108033418655D-05 0.505116488785D-02 0.605545938015D-05 0.515364924431D+04
    0.576000000000D+05 0.670552253723D-07-0.403204558288D+00 0.409781932831D-07
    0.964018733170D+00 0.266468750000D+03 0.465039021668D+00-0.832463246864D-08
    0.133219834855D-09 0.000000000000D+00 0.188400000000D+04 0.000000000000D+00
    0.200000000000D+01 0.000000000000D+00 0.512227416039D-08 0.450000000000D+02
    0.504000000000D+05 0.400000000000D+01 0.000000000000D+00 0.000000000000D+00
 2 16  2 14 16  0  0.0 0.599550548941D-03 0.000000000000D+00 0.000000000000D+00
    0.920000000000D+02-0.115937500000D+02 0.536772358723D-08 0.897354074170D+00
   -0.640749931335D-06 0.154348723590D-01 0.651739537716D-05 0.515371585655D+04
    0.576000000000D+05-0.188127160072D-06-0.446480183978D+00 0.800937414169D-07
    0.942726969940D+00 0.245156250000D+03-0.216603189908D+01-0.873357807430D-08
    0.932181686252D-10 0.000000000000D+00 0.188400000000D+04 0.000000000000D+00
    0.200000000000D+01 0.000000000000D+00-0.204890966415D-07 0.920000000000D+02
    0.504000000000D+05 0.400000000000D+01 0.000000000000D+00 0.000000000000D+00
 3 16  2 14 16  0  0.0-0.245417468250D-04-0.477484718431D-11 0.000000000000D+00
    0.710000000000D+02-0.242500000000D+02 0.471876798420D-08 0.303894566653D+01
   -0.126473605633D-05 0.293019576929D-03 0.973604619503D-05 0.515376719665D+04
    0.576000000000D+05-0.931322574616D-08 0.637581833911D+00 0.298023223877D-07
    0.959418746728D+00 0.194281250000D+03 0.306238723615D+01-0.804212070089D-08
   -0.213223167315D-09 0.000000000000D+00 0.188400000000D+04 0.000000000000D+00
    0.280000000000D+01 0.000000000000D+00 0.186264514923D-08 0.710000000000D+02
    0.504000000000D+05 0.400000000000D+01 0.000000000000D+00 0.000000000000D+00
 6 16  2 14 16  0  0.0 0.145425088704D-03 0.602540239925D-11 0.000000000000D+00
    0.680000000000D+02-0.200937500000D+02 0.476091259683D-08 0.135132303527D+01
   -0.100210309029D-05 0.310028437525D-03 0.638514757156D-05 0.515363145828D+04
    0.576000000000D+05-0.279396772385D-07-0.411651953448D+00-0.558793544769D-08
    0.963861375849D+00 0.253500000000D+03-0.201433307717D+01-0.823641450830D-08
    0.219294848796D-09 0.000000000000D+00 0.188400000000D+04 0.000000000000D+00
    0.200000000000D+01 0.000000000000D+00 0.419095158577D-08 0.680000000000D+02
    0.504000000000D+05 0.400000000000D+01 0.000000000000D+00 0.000000000000D+00
 7 16  2 14 16  0  0.0 0.469633378089D-03-0.170530256582D-11 0.000000000000D+00
    0.700000000000D+02 0.271250000000D+02 0.465197948790D-08-0.287322966829D+00
    0.133365392685D-05 0.907262391411D-02 0.425055623054D-05 0.515367189026D+04
    0.576000000000D+05 0.968575477600D-07 0.275609973958D+01 0.502914190292D-07
    0.967632199342D+00 0.299312500000D+03-0.268139766528D+01-0.848749639544D-08
   -0.168578450541D-09 0.000000000000D+00 0.188400000000D+04 0.000000000000D+00
    0.400000000000D+01 0.000000000000D+00-0.111758708954D-07 0.700000000000D+02
    0.504000000000D+05 0.400000000000D+01 0.000000000000D+00 0.000000000000D+00
 8 16  2 14 16  0  0.0-0.238618813455D-04-0.147792889038D-11 0.000000000000D+00
    0.740000000000D+02-0.131250000000D+01 0.442054127615D-08-0.257777354549D+01
   -0.931322574615D-07 0.180031044874D-02 0.876560807228D-05 0.515365011406D+04
    0.576000000000D+05 0.279396772385D-07-0.146298182300D+01-0.186264514923D-07
    0.961915898150D+00 0.209656250000D+03-0.137207619303D+01-0.804962101331D-08
    0.330013746397D-09 0.100000000000D+01 0.188400000000D+04 0.000000000000D+00
    0.200000000000D+01 0.000000000000D+00 0.465661287308D-08 0.740000000000D+02
    0.504180000000D+05 0.400000000000D+01 0.000000000000D+00 0.000000000000D+00
 9 16  2 14 16  0  0.0 0.706291757524D-04 0.773070496507D-11 0.000000000000D+00
    0.470000000000D+02 0.738125000000D+02 0.469198115413D-08 0.250789978990D+01
    0.392831861973D-05 0.652405666187D-03 0.935979187489D-05 0.515364111710D+04
    0.576000000000D+05 0.279396772385D-07 0.167824077961D+01-0.242143869400D-07
    0.955288390636D+00 0.194375000000D+03 0.192675721845D+01-0.814462497061D-08
    0.892894335490D-11 0.000000000000D+00 0.188400000000D+04 0.000000000000D+00
    0.200000000000D+01 0.000000000000D+00 0.139698386192D-08 0.470000000000D+02
    0.504000000000D+05 0.400000000000D+01 0.000000000000D+00 0.000000000000D+00
10 16  2 14 16  0  0.0 0.433619134128D-04-0.454747350886D-11 0.000000000000D+00
    0.410000000000D+02-0.348437500000D+02 0.469983862429D-08-0.171121503943D+01
   -0.187568366528D-05 0.115337804891D-02 0.935606658459D-05 0.515368395615D+04
    0.576000000000D+05-0.558793544769D-08 0.633488333115D+00-0.298023223877D-07
    0.959682959973D+00 0.198812500000D+03-0.290325741068D+01-0.806605026908D-08
   -0.211437378644D-09 0.100000000000D+01 0.188400000000D+04 0.000000000000D+00
    0.200000000000D+01 0.000000000000D+00 0.232830643654D-08 0.410000000000D+02
    0.504180000000D+05 0.400000000000D+01 0.000000000000D+00 0.000000000000D+00
